{
  "type": "FeatureCollection",
  "features": [
    {
      "type": "Feature",
      "id": "SV-MIN-HLT-001",
      "geometry": {"type": "Point", "coordinates": [-24.98527, 16.8845]},
      "properties": {"id": "SV-MIN-HLT-001", "name": "Hospital Dr. Baptista de Sousa", "category": "Health & Pharmacy", "location": "Largo do Tarrafal, Mindelo, São Vicente"}
    },
    {
      "type": "Feature",
      "id": "SV-MIN-HLT-002",
      "geometry": {"type": "Point", "coordinates": [-24.986987, 16.892007]},
      "properties": {"id": "SV-MIN-HLT-002", "name": "Urgimed", "category": "Health & Pharmacy", "location": "Rua Senegal, corner with Avenida Professor Alberto Leite, Mindelo"}
    },
    {
      "type": "Feature",
      "id": "SV-MIN-HUB-001",
      "geometry": {"type": "Point", "coordinates": [-24.989157, 16.883646]},
      "properties": {"id": "SV-MIN-HUB-001", "name": "Praça Estrela", "category": "Getting Around", "location": "Praça Estrela, Mindelo · area-level orientation"}
    },
    {
      "type": "Feature",
      "id": "SV-MIN-PHO-001",
      "geometry": {"type": "Point", "coordinates": [-24.988438, 16.887536]},
      "properties": {"id": "SV-MIN-PHO-001", "name": "Foto Express", "category": "Mobile, Internet & Work", "location": "Mindelo"}
    },
    {
      "type": "Feature",
      "id": "SV-MIN-HDW-001",
      "geometry": {"type": "Point", "coordinates": [-24.985601, 16.886734]},
      "properties": {"id": "SV-MIN-HDW-001", "name": "Bricodeló", "category": "Personal & Household Services", "location": "Mindelo"}
    },
    {
      "type": "Feature",
      "id": "SV-MIN-GDN-001",
      "geometry": {"type": "Point", "coordinates": [-24.98628, 16.88891]},
      "properties": {"id": "SV-MIN-GDN-001", "name": "Garden Center", "category": "Personal & Household Services", "location": "Mindelo"}
    },
    {
      "type": "Feature",
      "id": "SV-MIN-CUL-002",
      "geometry": {"type": "Point", "coordinates": [-24.98865, 16.88555]},
      "properties": {"id": "SV-MIN-CUL-002", "name": "Bombu Mininu", "category": "Culture & Everyday Leisure", "location": "Mindelo"}
    },
    {
      "type": "Feature",
      "id": "SV-MIN-LAU-003",
      "geometry": {"type": "Point", "coordinates": [-24.98903, 16.88539]},
      "properties": {"id": "SV-MIN-LAU-003", "name": "Lavandaria Mindelo Expresso", "category": "Personal & Household Services", "location": "central Mindelo / Praça Dom Luís vicinity"}
    },
    {
      "type": "Feature",
      "id": "SV-MIN-BCH-001",
      "geometry": {"type": "Point", "coordinates": [-24.99296, 16.89297]},
      "properties": {"id": "SV-MIN-BCH-001", "name": "Kalimba Beach Club by Oásis Atlântico", "category": "Beaches & Recreation", "location": "São Vicente"}
    }
  ]
}
